{
  "type": "FeatureCollection",
  "features": [
    {
      "type": "Feature",
      "properties": {
        "norad_id": 30264,
        "name": "FENGYUN 1C DEB",
        "group": "fengyun-1c-debris",
        "lat": 40.30652767499288,
        "lon": 48.110862285557076,
        "alt_km": 933.8042666202928,
        "timestamp": "2025-12-26T18:39:32.555250+00:00",
        "meta_object_name": "FENGYUN 1C DEB",
        "meta_object_id": "1999-025XZ",
        "meta_epoch": "2025-12-26T03:22:51.053088",
        "meta_mean_motion": 14.07692025,
        "meta_eccentricity": 0.01083064,
        "meta_inclination": 98.9695,
        "meta_ra_of_asc_node": 55.1779,
        "meta_arg_of_pericenter": 249.7792,
        "meta_mean_anomaly": 166.3784,
        "meta_ephemeris_type": 0,
        "meta_classification_type": "U",
        "meta_norad_cat_id": 30264,
        "meta_element_set_no": 999,
        "meta_rev_at_epoch": 96746,
        "meta_bstar": 0.0010784608,
        "meta_mean_motion_dot": 1.879e-05,
        "meta_mean_motion_ddot": 0,
        "tle_line1": "1 30264U 99025XZ  25360.14086867  .00001879  00000+0  10785-2 0  9993",
        "tle_line2": "2 30264  98.9695  55.1779 0108306 249.7792 166.3784 14.07692025967468"
      },
      "geometry": {
        "type": "Point",
        "coordinates": [
          48.110862285557076,
          40.30652767499288
        ]
      }
    },
    {
      "type": "Feature",
      "properties": {
        "norad_id": 30265,
        "name": "FENGYUN 1C DEB",
        "group": "fengyun-1c-debris",
        "lat": 60.06715201587386,
        "lon": -54.143490248033146,
        "alt_km": 708.0847700932227,
        "timestamp": "2025-12-26T18:39:32.555260+00:00",
        "meta_object_name": "FENGYUN 1C DEB",
        "meta_object_id": "1999-025YA",
        "meta_epoch": "2025-12-25T06:10:18.585984",
        "meta_mean_motion": 14.5885906,
        "meta_eccentricity": 0.0028061,
        "meta_inclination": 98.6637,
        "meta_ra_of_asc_node": 108.916,
        "meta_arg_of_pericenter": 333.3639,
        "meta_mean_anomaly": 85.3061,
        "meta_ephemeris_type": 0,
        "meta_classification_type": "U",
        "meta_norad_cat_id": 30265,
        "meta_element_set_no": 999,
        "meta_rev_at_epoch": 98584,
        "meta_bstar": 0.0023901,
        "meta_mean_motion_dot": 0.00011213,
        "meta_mean_motion_ddot": 0,
        "tle_line1": "1 30265U 99025YA  25359.25715956  .00011213  00000+0  23901-2 0  9999",
        "tle_line2": "2 30265  98.6637 108.9160 0028061 333.3639  85.3061 14.58859060985842"
      },
      "geometry": {
        "type": "Point",
        "coordinates": [
          -54.143490248033146,
          60.06715201587386
        ]
      }
    },
    {
      "type": "Feature",
      "properties": {
        "norad_id": 30266,
        "name": "FENGYUN 1C DEB",
        "group": "fengyun-1c-debris",
        "lat": 80.91043495693243,
        "lon": -30.413466538516538,
        "alt_km": 808.9987816462499,
        "timestamp": "2025-12-26T18:39:32.555270+00:00",
        "meta_object_name": "FENGYUN 1C DEB",
        "meta_object_id": "1999-025YB",
        "meta_epoch": "2025-12-26T03:06:17.262144",
        "meta_mean_motion": 14.15143281,
        "meta_eccentricity": 0.00816776,
        "meta_inclination": 99.0414,
        "meta_ra_of_asc_node": 64.5209,
        "meta_arg_of_pericenter": 27.7514,
        "meta_mean_anomaly": 2.3899,
        "meta_ephemeris_type": 0,
        "meta_classification_type": "U",
        "meta_norad_cat_id": 30266,
        "meta_element_set_no": 999,
        "meta_rev_at_epoch": 96979,
        "meta_bstar": 0.0011885971,
        "meta_mean_motion_dot": 2.337e-05,
        "meta_mean_motion_ddot": 0,
        "tle_line1": "1 30266U 99025YB  25360.12936646  .00002337  00000+0  11886-2 0  9995",
        "tle_line2": "2 30266  99.0414  64.5209 0081677  27.7514   2.3899 14.15143281969798"
      },
      "geometry": {
        "type": "Point",
        "coordinates": [
          -30.413466538516538,
          80.91043495693243
        ]
      }
    },
    {
      "type": "Feature",
      "properties": {
        "norad_id": 30267,
        "name": "FENGYUN 1C DEB",
        "group": "fengyun-1c-debris",
        "lat": 71.95135862798254,
        "lon": 43.46719595761463,
        "alt_km": 833.0036280297854,
        "timestamp": "2025-12-26T18:39:32.555280+00:00",
        "meta_object_name": "FENGYUN 1C DEB",
        "meta_object_id": "1999-025YC",
        "meta_epoch": "2025-12-26T11:33:40.114656",
        "meta_mean_motion": 14.23698027,
        "meta_eccentricity": 0.00600298,
        "meta_inclination": 98.8484,
        "meta_ra_of_asc_node": 71.7271,
        "meta_arg_of_pericenter": 204.236,
        "meta_mean_anomaly": 155.5992,
        "meta_ephemeris_type": 0,
        "meta_classification_type": "U",
        "meta_norad_cat_id": 30267,
        "meta_element_set_no": 999,
        "meta_rev_at_epoch": 97490,
        "meta_bstar": 0.0015398638,
        "meta_mean_motion_dot": 3.537e-05,
        "meta_mean_motion_ddot": 0,
        "tle_line1": "1 30267U 99025YC  25360.48171429  .00003537  00000+0  15399-2 0  9991",
        "tle_line2": "2 30267  98.8484  71.7271 0060029 204.2360 155.5992 14.23698027974907"
      },
      "geometry": {
        "type": "Point",
        "coordinates": [
          43.46719595761463,
          71.95135862798254
        ]
      }
    },
    {
      "type": "Feature",
      "properties": {
        "norad_id": 30270,
        "name": "FENGYUN 1C DEB",
        "group": "fengyun-1c-debris",
        "lat": 20.614327424184232,
        "lon": -162.6304518095405,
        "alt_km": 850.261170552345,
        "timestamp": "2025-12-26T18:39:32.555290+00:00",
        "meta_object_name": "FENGYUN 1C DEB",
        "meta_object_id": "1999-025YF",
        "meta_epoch": "2025-12-26T15:03:03.081600",
        "meta_mean_motion": 14.11277338,
        "meta_eccentricity": 0.00079551,
        "meta_inclination": 98.7017,
        "meta_ra_of_asc_node": 13.9213,
        "meta_arg_of_pericenter": 123.07,
        "meta_mean_anomaly": 352.5086,
        "meta_ephemeris_type": 0,
        "meta_classification_type": "U",
        "meta_norad_cat_id": 30270,
        "meta_element_set_no": 999,
        "meta_rev_at_epoch": 97557,
        "meta_bstar": 0.00014100621,
        "meta_mean_motion_dot": 2.12e-06,
        "meta_mean_motion_ddot": 0,
        "tle_line1": "1 30270U 99025YF  25360.62711900  .00000212  00000+0  14101-3 0  9993",
        "tle_line2": "2 30270  98.7017  13.9213 0007955 123.0700 352.5086 14.11277338975573"
      },
      "geometry": {
        "type": "Point",
        "coordinates": [
          -162.6304518095405,
          20.614327424184232
        ]
      }
    },
    {
      "type": "Feature",
      "properties": {
        "norad_id": 30272,
        "name": "FENGYUN 1C DEB",
        "group": "fengyun-1c-debris",
        "lat": -26.021491406530835,
        "lon": -115.95768857013283,
        "alt_km": 877.1017370610398,
        "timestamp": "2025-12-26T18:39:32.555299+00:00",
        "meta_object_name": "FENGYUN 1C DEB",
        "meta_object_id": "1999-025YH",
        "meta_epoch": "2025-12-26T10:54:06.946848",
        "meta_mean_motion": 14.14769767,
        "meta_eccentricity": 0.00500591,
        "meta_inclination": 98.8995,
        "meta_ra_of_asc_node": 68.1072,
        "meta_arg_of_pericenter": 65.1953,
        "meta_mean_anomaly": 295.4416,
        "meta_ephemeris_type": 0,
        "meta_classification_type": "U",
        "meta_norad_cat_id": 30272,
        "meta_element_set_no": 999,
        "meta_rev_at_epoch": 97050,
        "meta_bstar": 0.0010616161,
        "meta_mean_motion_dot": 2.027e-05,
        "meta_mean_motion_ddot": 0,
        "tle_line1": "1 30272U 99025YH  25360.45424707  .00002027  00000+0  10616-2 0  9994",
        "tle_line2": "2 30272  98.8995  68.1072 0050059  65.1953 295.4416 14.14769767970500"
      },
      "geometry": {
        "type": "Point",
        "coordinates": [
          -115.95768857013283,
          -26.021491406530835
        ]
      }
    },
    {
      "type": "Feature",
      "properties": {
        "norad_id": 30273,
        "name": "FENGYUN 1C DEB",
        "group": "fengyun-1c-debris",
        "lat": -64.12963076874945,
        "lon": 33.643208661261525,
        "alt_km": 887.1714215603388,
        "timestamp": "2025-12-26T18:39:32.555309+00:00",
        "meta_object_name": "FENGYUN 1C DEB",
        "meta_object_id": "1999-025YJ",
        "meta_epoch": "2025-12-26T12:51:00.051264",
        "meta_mean_motion": 14.02676486,
        "meta_eccentricity": 0.00607711,
        "meta_inclination": 98.8389,
        "meta_ra_of_asc_node": 14.6928,
        "meta_arg_of_pericenter": 210.6932,
        "meta_mean_anomaly": 301.5233,
        "meta_ephemeris_type": 0,
        "meta_classification_type": "U",
        "meta_norad_cat_id": 30273,
        "meta_element_set_no": 999,
        "meta_rev_at_epoch": 96722,
        "meta_bstar": 0.00032030899,
        "meta_mean_motion_dot": 4.6e-06,
        "meta_mean_motion_ddot": 0,
        "tle_line1": "1 30273U 99025YJ  25360.53541726  .00000460  00000+0  32031-3 0  9990",
        "tle_line2": "2 30273  98.8389  14.6928 0060771 210.6932 301.5233 14.02676486967223"
      },
      "geometry": {
        "type": "Point",
        "coordinates": [
          33.643208661261525,
          -64.12963076874945
        ]
      }
    }
  ]
}